$$SOE
2459580.500000000, A.D. 2022-Jan-01 00:00:00.0000, -7.210967256119026E+08, -6.464267582656127E+07, 8.489783725468446E+06,
2459587.500000000, A.D. 2022-Jan-08 00:00:00.0000, -7.200313592134980E+08, -7.182913904187965E+07, 8.847937028637439E+06,
2459594.500000000, A.D. 2022-Jan-15 00:00:00.0000, -7.188738147743962E+08, -7.900638983414192E+07, 9.204958054520857E+06,
2459601.500000000, A.D. 2022-Jan-22 00:00:00.0000, -7.176240842866372E+08, -8.617349332406807E+07, 9.560798734912131E+06,
2459608.500000000, A.D. 2022-Jan-29 00:00:00.0000, -7.162821636334206E+08, -9.332950947552840E+07, 9.915411004269123E+06,
2459615.500000000, A.D. 2022-Feb-05 00:00:00.0000, -7.148480548529377E+08, -1.004734936539537E+08, 1.026874694204641E+07,
2459622.500000000, A.D. 2022-Feb-12 00:00:00.0000, -7.133217662330854E+08, -1.076044982527860E+08, 1.062075862998965E+07,
2459629.500000000, A.D. 2022-Feb-19 00:00:00.0000, -7.117033115616153E+08, -1.147215730186983E+08, 1.097139803942407E+07,
2459636.500000000, A.D. 2022-Feb-26 00:00:00.0000, -7.099927098428049E+08, -1.218237647985631E+08, 1.132061700955485E+07,
2459643.500000000, A.D. 2022-Mar-05 00:00:00.0000, -7.081899853212943E+08, -1.289101173250892E+08, 1.166836725149822E+07,
2459650.500000000, A.D. 2022-Mar-12 00:00:00.0000, -7.062951675912206E+08, -1.359796711067943E+08, 1.201460035203692E+07,
2459657.500000000, A.D. 2022-Mar-19 00:00:00.0000, -7.043082917195240E+08, -1.430314633942068E+08, 1.235926777257084E+07,
2459664.500000000, A.D. 2022-Mar-26 00:00:00.0000, -7.022293983610337E+08, -1.500645282281819E+08, 1.270232084042990E+07,
2459671.500000000, A.D. 2022-Apr-02 00:00:00.0000, -7.000585337976588E+08, -1.570778966260914E+08, 1.304371072149476E+07,
2459678.500000000, A.D. 2022-Apr-09 00:00:00.0000, -6.977957496298215E+08, -1.640705969008997E+08, 1.338338834933957E+07,
2459685.500000000, A.D. 2022-Apr-16 00:00:00.0000, -6.954411017631307E+08, -1.710416544588356E+08, 1.372130433140645E+07,
2459692.500000000, A.D. 2022-Apr-23 00:00:00.0000, -6.929946499591960E+08, -1.779900899912192E+08, 1.405740903707138E+07,
2459699.500000000, A.D. 2022-Apr-30 00:00:00.0000, -6.904564598208830E+08, -1.849149183057246E+08, 1.439165285555352E+07,
2459706.500000000, A.D. 2022-May-07 00:00:00.0000, -6.878266041497177E+08, -1.918151497706120E+08, 1.472398618140025E+07,
2459713.500000000, A.D. 2022-May-14 00:00:00.0000, -6.851051622862208E+08, -1.986897913334434E+08, 1.505435924838439E+07,
2459720.500000000, A.D. 2022-May-21 00:00:00.0000, -6.822922194640461E+08, -2.055378463553853E+08, 1.538272206012923E+07,
2459727.500000000, A.D. 2022-May-28 00:00:00.0000, -6.793878666566669E+08, -2.123583142199324E+08, 1.570902438303405E+07,
2459734.500000000, A.D. 2022-Jun-04 00:00:00.0000, -6.763922006396481E+08, -2.191501900289168E+08, 1.603321575053531E+07,
2459741.500000000, A.D. 2022-Jun-11 00:00:00.0000, -6.733053241240063E+08, -2.259124643835273E+08, 1.635524546565610E+07,
2459748.500000000, A.D. 2022-Jun-18 00:00:00.0000, -6.701273459220798E+08, -2.326441232368631E+08, 1.667506259944758E+07,
2459755.500000000, A.D. 2022-Jun-25 00:00:00.0000, -6.668583811165339E+08, -2.393441478509564E+08, 1.699261597999850E+07,
2459762.500000000, A.D. 2022-Jul-02 00:00:00.0000, -6.634985510985074E+08, -2.460115149237676E+08, 1.730785415445693E+07,
2459769.500000000, A.D. 2022-Jul-09 00:00:00.0000, -6.600479830846468E+08, -2.526451967089592E+08, 1.762072530286136E+07,
2459776.500000000, A.D. 2022-Jul-16 00:00:00.0000, -6.565068091681546E+08, -2.592441600454778E+08, 1.793117719748835E+07,
2459783.500000000, A.D. 2022-Jul-23 00:00:00.0000, -6.528751671021734E+08, -2.658073642192414E+08, 1.823915741588992E+07,
2459790.500000000, A.D. 2022-Jul-30 00:00:00.0000, -6.491532027316284E+08, -2.723337610111146E+08, 1.854461352602233E+07,
2459797.500000000, A.D. 2022-Aug-06 00:00:00.0000, -6.453410704752116E+08, -2.788222962831407E+08, 1.884749296657617E+07,
2459804.500000000, A.D. 2022-Aug-13 00:00:00.0000, -6.414389326808057E+08, -2.852719103484302E+08, 1.914774292338575E+07,
2459811.500000000, A.D. 2022-Aug-20 00:00:00.0000, -6.374469594235519E+08, -2.916815376281013E+08, 1.944531030497718E+07,
2459818.500000000, A.D. 2022-Aug-27 00:00:00.0000, -6.333653286784415E+08, -2.980501063220571E+08, 1.974014175184590E+07,
2459825.500000000, A.D. 2022-Sep-03 00:00:00.0000, -6.291942266197256E+08, -3.043765382043837E+08, 2.003218364786619E+07,
2459832.500000000, A.D. 2022-Sep-10 00:00:00.0000, -6.249338479573252E+08, -3.106597485196425E+08, 2.032138212765935E+07,
2459839.500000000, A.D. 2022-Sep-17 00:00:00.0000, -6.205843962810991E+08, -3.168986459819208E+08, 2.060768307714480E+07,
2459846.500000000, A.D. 2022-Sep-24 00:00:00.0000, -6.161460843527900E+08, -3.230921329276307E+08, 2.089103211756150E+07,
2459853.500000000, A.D. 2022-Oct-01 00:00:00.0000, -6.116191341059116E+08, -3.292391056444210E+08, 2.117137454903200E+07,
2459860.500000000, A.D. 2022-Oct-08 00:00:00.0000, -6.070037759464580E+08, -3.353384543541175E+08, 2.144865525880893E+07,
2459867.500000000, A.D. 2022-Oct-15 00:00:00.0000, -6.023002482862872E+08, -3.413890616504230E+08, 2.172281877744855E+07,
2459874.500000000, A.D. 2022-Oct-22 00:00:00.0000, -5.975087994906622E+08, -3.473898010753179E+08, 2.199380954513097E+07,
2459881.500000000, A.D. 2022-Oct-29 00:00:00.0000, -5.926296897422857E+08, -3.533395384278870E+08, 2.226157194678438E+07,
2459888.500000000, A.D. 2022-Nov-05 00:00:00.0000, -5.876631907227064E+08, -3.592371330645107E+08, 2.252605014721426E+07,
2459895.500000000, A.D. 2022-Nov-12 00:00:00.0000, -5.826095850757767E+08, -3.650814379231844E+08, 2.278718800979425E+07,
2459902.500000000, A.D. 2022-Nov-19 00:00:00.0000, -5.774691663723797E+08, -3.708712992263739E+08, 2.304492908652173E+07,
2459909.500000000, A.D. 2022-Nov-26 00:00:00.0000, -5.722422393143582E+08, -3.766055562602509E+08, 2.329921662275510E+07,
2459916.500000000, A.D. 2022-Dec-03 00:00:00.0000, -5.669291200120516E+08, -3.822830412423185E+08, 2.354999356037006E+07,
2459923.500000000, A.D. 2022-Dec-10 00:00:00.0000, -5.615301362904148E+08, -3.879025792590631E+08, 2.379720253666192E+07,
2459930.500000000, A.D. 2022-Dec-17 00:00:00.0000, -5.560456279994268E+08, -3.934629882988091E+08, 2.404078587470250E+07,
2459937.500000000, A.D. 2022-Dec-24 00:00:00.0000, -5.504759472197042E+08, -3.989630794457362E+08, 2.428068554978780E+07,
2459944.500000000, A.D. 2022-Dec-31 00:00:00.0000, -5.448214580058895E+08, -4.044016571276560E+08, 2.451684310802475E+07,
2459951.500000000, A.D. 2023-Jan-07 00:00:00.0000, -5.390825355452071E+08, -4.097775184552409E+08, 2.474919960452417E+07,
2459958.500000000, A.D. 2023-Jan-14 00:00:00.0000, -5.332595666981255E+08, -4.150894511560091E+08, 2.497769578228915E+07,
2459965.500000000, A.D. 2023-Jan-21 00:00:00.0000, -5.273529525658699E+08, -4.203362332761019E+08, 2.520227229172587E+07,
2459972.500000000, A.D. 2023-Jan-28 00:00:00.0000, -5.213631094171848E+08, -4.255166348459364E+08, 2.542286959845528E+07,
2459979.500000000, A.D. 2023-Feb-04 00:00:00.0000, -5.152904681832996E+08, -4.306294184821991E+08, 2.563942784611392E+07,
2459986.500000000, A.D. 2023-Feb-11 00:00:00.0000, -5.091354743163580E+08, -4.356733391197955E+08, 2.585188682311723E+07,
2459993.500000000, A.D. 2023-Feb-18 00:00:00.0000, -5.028985880744610E+08, -4.406471436970516E+08, 2.606018597202802E+07,
2460000.500000000, A.D. 2023-Feb-25 00:00:00.0000, -4.965802849704751E+08, -4.455495709562227E+08, 2.626426440434256E+07,
2460007.500000000, A.D. 2023-Mar-04 00:00:00.0000, -4.901810562824595E+08, -4.503793513407869E+08, 2.646406091303146E+07,
2460014.500000000, A.D. 2023-Mar-11 00:00:00.0000, -4.837014095971740E+08, -4.551352069892698E+08, 2.665951398046419E+07,
2460021.500000000, A.D. 2023-Mar-18 00:00:00.0000, -4.771418693396745E+08, -4.598158518752791E+08, 2.685056177359748E+07,
2460028.500000000, A.D. 2023-Mar-25 00:00:00.0000, -4.705029770857404E+08, -4.644199921411536E+08, 2.703714210417524E+07,
2460035.500000000, A.D. 2023-Apr-01 00:00:00.0000, -4.637852912326593E+08, -4.689463262320126E+08, 2.721919234740424E+07,
2460042.500000000, A.D. 2023-Apr-08 00:00:00.0000, -4.569893866437341E+08, -4.733935436053481E+08, 2.739664947588769E+07,
2460049.500000000, A.D. 2023-Apr-15 00:00:00.0000, -4.501158566033483E+08, -4.777603231225404E+08, 2.756945033294740E+07,
2460056.500000000, A.D. 2023-Apr-22 00:00:00.0000, -4.431653152734021E+08, -4.820453341748756E+08, 2.773753173009625E+07,
2460063.500000000, A.D. 2023-Apr-29 00:00:00.0000, -4.361383979164700E+08, -4.862472382919182E+08, 2.790083030199578E+07,
2460070.500000000, A.D. 2023-May-06 00:00:00.0000, -4.290357606461992E+08, -4.903646894514169E+08, 2.805928242594194E+07,
2460077.500000000, A.D. 2023-May-13 00:00:00.0000, -4.218580806816994E+08, -4.943963339845087E+08, 2.821282422237322E+07,
2460084.500000000, A.D. 2023-May-20 00:00:00.0000, -4.146060568716761E+08, -4.983408105677430E+08, 2.836139157462034E+07,
2460091.500000000, A.D. 2023-May-27 00:00:00.0000, -4.072804102947999E+08, -5.021967503320117E+08, 2.850492014752996E+07,
2460098.500000000, A.D. 2023-Jun-03 00:00:00.0000, -3.998818848788578E+08, -5.059627770631391E+08, 2.864334540157568E+07,
2460105.500000000, A.D. 2023-Jun-10 00:00:00.0000, -3.924112480151140E+08, -5.096375075085722E+08, 2.877660259892491E+07,
2460112.500000000, A.D. 2023-Jun-17 00:00:00.0000, -3.848692910790157E+08, -5.132195518508306E+08, 2.890462678816754E+07,
2460119.500000000, A.D. 2023-Jun-24 00:00:00.0000, -3.772568295372946E+08, -5.167075142925783E+08, 2.902735274269482E+07,
2460126.500000000, A.D. 2023-Jul-01 00:00:00.0000, -3.695747023881942E+08, -5.200999929256669E+08, 2.914471489699933E+07,
2460133.500000000, A.D. 2023-Jul-08 00:00:00.0000, -3.618237726084462E+08, -5.233955780626014E+08, 2.925664750144714E+07,
2460140.500000000, A.D. 2023-Jul-15 00:00:00.0000, -3.540049298832548E+08, -5.265928518610960E+08, 2.936308488123208E+07,
$$EOE